ONEWEB-0667             
1 55827U 23029AH  26179.54267377  .00000009  00000+0 -92933-5 0  9999
2 55827  87.9201 272.1682 0001823 100.8942 259.2397 13.20772890162647
ONEWEB-0669             
1 55828U 23029AJ  26179.31034833 -.00000010  00000+0 -55841-4 0  9993
2 55828  87.9194 272.2250 0001996  83.3166 276.8194 13.20772035162613
ONEWEB-0670             
1 55829U 23029AK  26179.55382679 -.00000132  00000+0 -38982-3 0  9995
2 55829  87.8962 287.4746 0001561  96.1738 263.9569 13.14501519160924
ONEWEB-0671             
1 55830U 23029AL  26179.58765621  .00000106  00000+0  23118-3 0  9996
2 55830  87.9180 302.7046 0001744 102.1268 258.0060 13.19726252160404
ONEWEB-0672             
1 55831U 23029AM  26179.53255870  .00000027  00000+0  35020-4 0  9990
2 55831  87.9195 272.1742 0002217  95.2642 264.8745 13.20773170162644
ONEWEB-0673             
1 55832U 23029AN  26179.64055732 -.00000045  00000+0 -14363-3 0  9996
2 55832  87.9187 302.6865 0001786 100.8273 259.3061 13.19724241160410
ONEWEB-0674             
1 55833U 23029AP  26179.59822436  .00000201  00000+0  50651-3 0  9996
2 55833  87.8960 287.4427 0001557  94.5036 265.6271 13.14504921160919
ONEWEB-0675             
1 55834U 23029AQ  26179.57976881  .00000040  00000+0  68260-4 0  9996
2 55834  87.9178 302.7076 0002221 100.9499 259.1884 13.19725902160420
ONEWEB-0720             
1 55835U 23029AR  26179.57186462  .00000012  00000+0 -26374-5 0  9996
2 55835  87.9178 302.7091 0001810 109.2509 250.8820 13.19725945160341
ONEWEB-0537             
1 56046U 23043A   26179.59414074  .00000059  00000+0  11989-3 0  9996
2 56046  87.9091 226.5061 0002241  94.0254 266.1133 13.16595463160464
ONEWEB-0538             
1 56047U 23043B   26179.58780490  .00000040  00000+0  71443-4 0  9996
2 56047  87.9088 226.5100 0002236 101.1917 258.9465 13.16595724160473
ONEWEB-0546             
1 56048U 23043C   26179.57513834  .00000069  00000+0  14577-3 0  9997
2 56048  87.9090 226.5126 0002635  87.0369 273.1064 13.16595571160464
ONEWEB-0547             
1 56049U 23043D   26179.60258772  .00000045  00000+0  76398-4 0  9993
2 56049  87.9252 241.7033 0002067 103.3113 256.8251 13.21826430159730
ONEWEB-0548             
1 56050U 23043E   26179.59967548  .00000048  00000+0  92693-4 0  9990
2 56050  87.9088 226.5036 0001758  84.6338 275.4994 13.16593679160462
ONEWEB-0549             
1 56051U 23043F   26179.59670512  .00000016  00000+0  70274-5 0  9990
2 56051  87.9247 241.7103 0002330 105.6022 254.5369 13.21826324159739
ONEWEB-0550             
1 56052U 23043G   26179.58325758  .00000059  00000+0  11203-3 0  9991
2 56052  87.9249 241.7109 0001860  95.3739 264.7607 13.21826546159739
ONEWEB-0551             
1 56053U 23043H   26179.48776292 -.00000222  00000+0 -62410-3 0  9994
2 56053  87.8997 256.9751 0002186 109.0326 251.1041 13.15548468157880
ONEWEB-0552             
1 56054U 23043J   26179.57818613 -.00000052  00000+0 -15794-3 0  9993
2 56054  87.9245 241.7169 0001912 102.6949 257.4399 13.21825439159733
ONEWEB-0553             
1 56055U 23043K   26179.58147062  .00000109  00000+0  25081-3 0  9999
2 56055  87.9089 226.5116 0002301  87.7733 272.3662 13.16595399160475
ONEWEB-0554             
1 56056U 23043L   26179.56881070  .00000122  00000+0  28498-3 0  9992
2 56056  87.9087 226.5230 0001723  84.1851 275.9476 13.16595278160456
ONEWEB-0555             
1 56057U 23043M   26179.60679589 -.00000069  00000+0 -21497-3 0  9992
2 56057  87.9093 226.5041 0002516  86.5215 273.6204 13.16593111160464
ONEWEB-0557             
1 56058U 23043N   26179.62104962 -.00000061  00000+0 -19359-3 0  9999
2 56058  87.9090 226.5111 0002225  61.8219 298.3136 13.16594844160469
ONEWEB-0558             
1 56059U 23043P   26179.57145983 -.00000044  00000+0 -13742-3 0  9993
2 56059  87.9247 241.7133 0002315 103.3240 256.8153 13.21824456159741
ONEWEB-0559             
1 56060U 23043Q   26179.63537537  .00000011  00000+0 -55946-5 0  9999
2 56060  87.9250 241.6960 0002045 104.5821 255.5540 13.21826260159765
ONEWEB-0566             
1 56061U 23043R   26179.55295532  .00000055  00000+0  10150-3 0  9990
2 56061  87.9248 241.7103 0002097 107.3363 252.8001 13.21827503159732
ONEWEB-0568             
1 56062U 23043S   26179.56248928  .00001982  00000+0  51496-2 0  9996
2 56062  87.9087 226.5123 0002174  91.5749 268.5631 13.16584770160471
ONEWEB-0574             
1 56063U 23043T   26179.62193871 -.00000039  00000+0 -12556-3 0  9999
2 56063  87.9256 241.7006 0001971  92.3144 267.8215 13.21825214159780
ONEWEB-0575             
1 56064U 23043U   26179.63214436 -.00000062  00000+0 -19695-3 0  9999
2 56064  87.9086 226.4948 0002067  83.8177 276.3190 13.16594501160476
ONEWEB-0576             
1 56065U 23043V   26179.61313867 -.00000079  00000+0 -23938-3 0  9999
2 56065  87.9094 226.5067 0002045  89.1612 270.9753 13.16594512160464
ONEWEB-0577             
1 56066U 23043W   26179.61948205 -.00000106  00000+0 -31188-3 0  9997
2 56066  87.9091 226.5030 0001819  73.3666 286.7664 13.16594057160497
