OBJECT_NAME,OBJECT_ID,EPOCH,MEAN_MOTION,ECCENTRICITY,INCLINATION,RA_OF_ASC_NODE,ARG_OF_PERICENTER,MEAN_ANOMALY,EPHEMERIS_TYPE,CLASSIFICATION_TYPE,NORAD_CAT_ID,ELEMENT_SET_NO,REV_AT_EPOCH,BSTAR,MEAN_MOTION_DOT,MEAN_MOTION_DDOT
ONEWEB-0667,2023-029AH,2026-06-28T13:01:27.013728,13.20772890,.00018238,87.9201,272.1682,100.8942,259.2397,0,U,55827,999,16264,-.9293296E-5,.9E-7,0
ONEWEB-0669,2023-029AJ,2026-06-28T07:26:54.095712,13.20772035,.00019968,87.9194,272.2250,83.3166,276.8194,0,U,55828,999,16261,-.55841299E-4,-.1E-6,0
ONEWEB-0670,2023-029AK,2026-06-28T13:17:30.634656,13.14501519,.00015611,87.8962,287.4746,96.1738,263.9569,0,U,55829,999,16092,-.38981582E-3,-.132E-5,0
ONEWEB-0671,2023-029AL,2026-06-28T14:06:13.496544,13.19726252,.00017448,87.9180,302.7046,102.1268,258.0060,0,U,55830,999,16040,.23118061E-3,.106E-5,0
ONEWEB-0672,2023-029AM,2026-06-28T12:46:53.071680,13.20773170,.00022179,87.9195,272.1742,95.2642,264.8745,0,U,55831,999,16264,.35020326E-4,.27E-6,0
ONEWEB-0673,2023-029AN,2026-06-28T15:22:24.152448,13.19724241,.00017863,87.9187,302.6865,100.8273,259.3061,0,U,55832,999,16041,-.14362829E-3,-.45E-6,0
ONEWEB-0674,2023-029AP,2026-06-28T14:21:26.584704,13.14504921,.00015571,87.8960,287.4427,94.5036,265.6271,0,U,55833,999,16091,.50651287E-3,.201E-5,0
ONEWEB-0675,2023-029AQ,2026-06-28T13:54:52.025184,13.19725902,.00022217,87.9178,302.7076,100.9499,259.1884,0,U,55834,999,16042,.68259641E-4,.4E-6,0
ONEWEB-0720,2023-029AR,2026-06-28T13:43:29.103168,13.19725945,.00018109,87.9178,302.7091,109.2509,250.8820,0,U,55835,999,16034,-.2637401E-5,.12E-6,0
ONEWEB-0537,2023-043A,2026-06-28T14:15:33.759936,13.16595463,.00022411,87.9091,226.5061,94.0254,266.1133,0,U,56046,999,16046,.11989354E-3,.59E-6,0
ONEWEB-0538,2023-043B,2026-06-28T14:06:26.343360,13.16595724,.0002236,87.9088,226.5100,101.1917,258.9465,0,U,56047,999,16047,.71442863E-4,.4E-6,0
ONEWEB-0546,2023-043C,2026-06-28T13:48:11.952576,13.16595571,.00026351,87.9090,226.5126,87.0369,273.1064,0,U,56048,999,16046,.1457718E-3,.69E-6,0
ONEWEB-0547,2023-043D,2026-06-28T14:27:43.579008,13.21826430,.00020677,87.9252,241.7033,103.3113,256.8251,0,U,56049,999,15973,.7639799E-4,.45E-6,0
ONEWEB-0548,2023-043E,2026-06-28T14:23:31.961472,13.16593679,.00017585,87.9088,226.5036,84.6338,275.4994,0,U,56050,999,16046,.92692973E-4,.48E-6,0
ONEWEB-0549,2023-043F,2026-06-28T14:19:15.322368,13.21826324,.00023304,87.9247,241.7103,105.6022,254.5369,0,U,56051,999,15973,.7027397E-5,.16E-6,0
ONEWEB-0550,2023-043G,2026-06-28T13:59:53.454912,13.21826546,.00018605,87.9249,241.7109,95.3739,264.7607,0,U,56052,999,15973,.11202637E-3,.59E-6,0
ONEWEB-0551,2023-043H,2026-06-28T11:42:22.716288,13.15548468,.00021862,87.8997,256.9751,109.0326,251.1041,0,U,56053,999,15788,-.62410076E-3,-.222E-5,0
ONEWEB-0552,2023-043J,2026-06-28T13:52:35.281632,13.21825439,.00019128,87.9245,241.7169,102.6949,257.4399,0,U,56054,999,15973,-.15793713E-3,-.52E-6,0
ONEWEB-0553,2023-043K,2026-06-28T13:57:19.061568,13.16595399,.00023019,87.9089,226.5116,87.7733,272.3662,0,U,56055,999,16047,.2508085E-3,.109E-5,0
ONEWEB-0554,2023-043L,2026-06-28T13:39:05.244480,13.16595278,.00017235,87.9087,226.5230,84.1851,275.9476,0,U,56056,999,16045,.28497717E-3,.122E-5,0
ONEWEB-0555,2023-043M,2026-06-28T14:33:47.164896,13.16593111,.0002516,87.9093,226.5041,86.5215,273.6204,0,U,56057,999,16046,-.21496862E-3,-.69E-6,0
ONEWEB-0557,2023-043N,2026-06-28T14:54:18.687168,13.16594844,.00022251,87.9090,226.5111,61.8219,298.3136,0,U,56058,999,16046,-.19359151E-3,-.61E-6,0
ONEWEB-0558,2023-043P,2026-06-28T13:42:54.129312,13.21824456,.00023156,87.9247,241.7133,103.3240,256.8153,0,U,56059,999,15974,-.13742216E-3,-.44E-6,0
ONEWEB-0559,2023-043Q,2026-06-28T15:14:56.431968,13.21826260,.00020453,87.9250,241.6960,104.5821,255.5540,0,U,56060,999,15976,-.5594634E-5,.11E-6,0
ONEWEB-0566,2023-043R,2026-06-28T13:16:15.339648,13.21827503,.00020975,87.9248,241.7103,107.3363,252.8001,0,U,56061,999,15973,.10150003E-3,.55E-6,0
ONEWEB-0568,2023-043S,2026-06-28T13:29:59.073792,13.16584770,.00021749,87.9087,226.5123,91.5749,268.5631,0,U,56062,999,16047,.51495866E-2,.1982E-4,0
ONEWEB-0574,2023-043T,2026-06-28T14:55:35.504544,13.21825214,.00019718,87.9256,241.7006,92.3144,267.8215,0,U,56063,999,15978,-.12556212E-3,-.39E-6,0
ONEWEB-0575,2023-043U,2026-06-28T15:10:17.272704,13.16594501,.00020679,87.9086,226.4948,83.8177,276.3190,0,U,56064,999,16047,-.19695343E-3,-.62E-6,0
ONEWEB-0576,2023-043V,2026-06-28T14:42:55.181088,13.16594512,.00020451,87.9094,226.5067,89.1612,270.9753,0,U,56065,999,16046,-.23937833E-3,-.79E-6,0
ONEWEB-0577,2023-043W,2026-06-28T14:52:03.249120,13.16594057,.00018192,87.9091,226.5030,73.3666,286.7664,0,U,56066,999,16049,-.31187656E-3,-.106E-5,0
